CCSDS_OMM_VERS = 2.0
CREATION_DATE  = 
ORIGINATOR     = 

OBJECT_NAME    = HTV-X1
OBJECT_ID      = 2025-241A
CENTER_NAME    = EARTH
REF_FRAME      = TEME
TIME_SYSTEM    = UTC
MEAN_ELEMENT_THEORY = SGP/SGP4

EPOCH          = 2026-03-30T21:49:28.893216
MEAN_MOTION    = 15.32483648
ECCENTRICITY   = .0007317
INCLINATION    = 51.6389
RA_OF_ASC_NODE = 330.8013
ARG_OF_PERICENTER = 254.4770
MEAN_ANOMALY   = 105.5404

EPHEMERIS_TYPE = 0
CLASSIFICATION_TYPE = U
NORAD_CAT_ID   = 66174
ELEMENT_SET_NO = 999
REV_AT_EPOCH   = 2419
BSTAR          = .56485551E-4
MEAN_MOTION_DOT = .1427E-4
MEAN_MOTION_DDOT = 0

CCSDS_OMM_VERS = 2.0
CREATION_DATE  = 
ORIGINATOR     = 

OBJECT_NAME    = SZ-21 MODULE
OBJECT_ID      = 2025-246C
CENTER_NAME    = EARTH
REF_FRAME      = TEME
TIME_SYSTEM    = UTC
MEAN_ELEMENT_THEORY = SGP/SGP4

EPOCH          = 2026-03-30T07:26:18.451392
MEAN_MOTION    = 15.70166693
ECCENTRICITY   = .00020203
INCLINATION    = 41.4738
RA_OF_ASC_NODE = 76.2734
ARG_OF_PERICENTER = 214.1142
MEAN_ANOMALY   = 145.9571

EPHEMERIS_TYPE = 0
CLASSIFICATION_TYPE = U
NORAD_CAT_ID   = 66515
ELEMENT_SET_NO = 999
REV_AT_EPOCH   = 2131
BSTAR          = .38893019E-3
MEAN_MOTION_DOT = .48483E-3
MEAN_MOTION_DDOT = 0

CCSDS_OMM_VERS = 2.0
CREATION_DATE  = 
ORIGINATOR     = 

OBJECT_NAME    = SHENZHOU-22
OBJECT_ID      = 2025-272A
CENTER_NAME    = EARTH
REF_FRAME      = TEME
TIME_SYSTEM    = UTC
MEAN_ELEMENT_THEORY = SGP/SGP4

EPOCH          = 2026-03-30T18:16:38.163648
MEAN_MOTION    = 15.61714186
ECCENTRICITY   = .00037162
INCLINATION    = 41.4667
RA_OF_ASC_NODE = 79.8424
ARG_OF_PERICENTER = 71.4537
MEAN_ANOMALY   = 288.6706

EPHEMERIS_TYPE = 0
CLASSIFICATION_TYPE = U
NORAD_CAT_ID   = 66645
ELEMENT_SET_NO = 999
REV_AT_EPOCH   = 28115
BSTAR          = .33197022E-3
MEAN_MOTION_DOT = .2927E-3
MEAN_MOTION_DDOT = 0

CCSDS_OMM_VERS = 2.0
CREATION_DATE  = 
ORIGINATOR     = 

OBJECT_NAME    = SOYUZ-MS 28
OBJECT_ID      = 2025-275A
CENTER_NAME    = EARTH
REF_FRAME      = TEME
TIME_SYSTEM    = UTC
MEAN_ELEMENT_THEORY = SGP/SGP4

EPOCH          = 2026-03-30T22:32:53.905920
MEAN_MOTION    = 15.48666868
ECCENTRICITY   = .00062127
INCLINATION    = 51.6341
RA_OF_ASC_NODE = 327.3071
ARG_OF_PERICENTER = 253.0090
MEAN_ANOMALY   = 107.0218

EPHEMERIS_TYPE = 0
CLASSIFICATION_TYPE = U
NORAD_CAT_ID   = 66664
ELEMENT_SET_NO = 999
REV_AT_EPOCH   = 55931
BSTAR          = .22734022E-3
MEAN_MOTION_DOT = .11955E-3
MEAN_MOTION_DDOT = 0

CCSDS_OMM_VERS = 2.0
CREATION_DATE  = 
ORIGINATOR     = 

OBJECT_NAME    = DUPLEX
OBJECT_ID      = 1998-067XS
CENTER_NAME    = EARTH
REF_FRAME      = TEME
TIME_SYSTEM    = UTC
MEAN_ELEMENT_THEORY = SGP/SGP4

EPOCH          = 2026-03-30T19:58:21.442368
MEAN_MOTION    = 15.57641267
ECCENTRICITY   = .00030399
INCLINATION    = 51.6301
RA_OF_ASC_NODE = 323.5918
ARG_OF_PERICENTER = 209.6897
MEAN_ANOMALY   = 150.3923

EPHEMERIS_TYPE = 0
CLASSIFICATION_TYPE = U
NORAD_CAT_ID   = 66906
ELEMENT_SET_NO = 999
REV_AT_EPOCH   = 1842
BSTAR          = .46993701E-3
MEAN_MOTION_DOT = .35084E-3
MEAN_MOTION_DDOT = 0

CCSDS_OMM_VERS = 2.0
CREATION_DATE  = 
ORIGINATOR     = 

OBJECT_NAME    = ISS OBJECT XT
OBJECT_ID      = 1998-067XT
CENTER_NAME    = EARTH
REF_FRAME      = TEME
TIME_SYSTEM    = UTC
MEAN_ELEMENT_THEORY = SGP/SGP4

EPOCH          = 2026-03-30T20:46:07.396032
MEAN_MOTION    = 15.77411960
ECCENTRICITY   = .00064586
INCLINATION    = 51.6234
RA_OF_ASC_NODE = 317.0231
ARG_OF_PERICENTER = 218.2638
MEAN_ANOMALY   = 141.7905

EPHEMERIS_TYPE = 0
CLASSIFICATION_TYPE = U
NORAD_CAT_ID   = 66907
ELEMENT_SET_NO = 999
REV_AT_EPOCH   = 1851
BSTAR          = .16004324E-2
MEAN_MOTION_DOT = .27909E-2
MEAN_MOTION_DDOT = 0

CCSDS_OMM_VERS = 2.0
CREATION_DATE  = 
ORIGINATOR     = 

OBJECT_NAME    = ISS OBJECT XU
OBJECT_ID      = 1998-067XU
CENTER_NAME    = EARTH
REF_FRAME      = TEME
TIME_SYSTEM    = UTC
MEAN_ELEMENT_THEORY = SGP/SGP4

EPOCH          = 2026-03-30T20:40:10.814592
MEAN_MOTION    = 15.77669708
ECCENTRICITY   = .00066681
INCLINATION    = 51.6239
RA_OF_ASC_NODE = 316.9907
ARG_OF_PERICENTER = 217.3413
MEAN_ANOMALY   = 142.7125

EPHEMERIS_TYPE = 0
CLASSIFICATION_TYPE = U
NORAD_CAT_ID   = 66908
ELEMENT_SET_NO = 999
REV_AT_EPOCH   = 1851
BSTAR          = .15668076E-2
MEAN_MOTION_DOT = .276303E-2
MEAN_MOTION_DDOT = 0

CCSDS_OMM_VERS = 2.0
CREATION_DATE  = 
ORIGINATOR     = 

OBJECT_NAME    = SILVERSAT
OBJECT_ID      = 1998-067XV
CENTER_NAME    = EARTH
REF_FRAME      = TEME
TIME_SYSTEM    = UTC
MEAN_ELEMENT_THEORY = SGP/SGP4

EPOCH          = 2026-03-30T20:54:28.274976
MEAN_MOTION    = 15.83458255
ECCENTRICITY   = .00076359
INCLINATION    = 51.6201
RA_OF_ASC_NODE = 315.5427
ARG_OF_PERICENTER = 224.6684
MEAN_ANOMALY   = 135.3705

EPHEMERIS_TYPE = 0
CLASSIFICATION_TYPE = U
NORAD_CAT_ID   = 66909
ELEMENT_SET_NO = 999
REV_AT_EPOCH   = 1853
BSTAR          = .18198445E-2
MEAN_MOTION_DOT = .426319E-2
MEAN_MOTION_DDOT = 0

CCSDS_OMM_VERS = 2.0
CREATION_DATE  = 
ORIGINATOR     = 

OBJECT_NAME    = ISS OBJECT XW
OBJECT_ID      = 1998-067XW
CENTER_NAME    = EARTH
REF_FRAME      = TEME
TIME_SYSTEM    = UTC
MEAN_ELEMENT_THEORY = SGP/SGP4

EPOCH          = 2026-03-30T20:59:13.382880
MEAN_MOTION    = 15.75809976
ECCENTRICITY   = .000669
INCLINATION    = 51.6224
RA_OF_ASC_NODE = 317.0765
ARG_OF_PERICENTER = 214.4793
MEAN_ANOMALY   = 145.5774

EPHEMERIS_TYPE = 0
CLASSIFICATION_TYPE = U
NORAD_CAT_ID   = 66910
ELEMENT_SET_NO = 999
REV_AT_EPOCH   = 1851
BSTAR          = .14528341E-2
MEAN_MOTION_DOT = .234755E-2
MEAN_MOTION_DDOT = 0

CCSDS_OMM_VERS = 2.0
CREATION_DATE  = 
ORIGINATOR     = 

OBJECT_NAME    = ISS OBJECT XX
OBJECT_ID      = 1998-067XX
CENTER_NAME    = EARTH
REF_FRAME      = TEME
TIME_SYSTEM    = UTC
MEAN_ELEMENT_THEORY = SGP/SGP4

EPOCH          = 2026-03-30T19:17:32.878464
MEAN_MOTION    = 15.90941869
ECCENTRICITY   = .00097324
INCLINATION    = 51.6174
RA_OF_ASC_NODE = 314.3043
ARG_OF_PERICENTER = 229.4279
MEAN_ANOMALY   = 130.5881

EPHEMERIS_TYPE = 0
CLASSIFICATION_TYPE = U
NORAD_CAT_ID   = 66911
ELEMENT_SET_NO = 999
REV_AT_EPOCH   = 1853
BSTAR          = .20363807E-2
MEAN_MOTION_DOT = .655021E-2
MEAN_MOTION_DDOT = .18053E-3

CCSDS_OMM_VERS = 2.0
CREATION_DATE  = 
ORIGINATOR     = 

OBJECT_NAME    = ISS OBJECT XY
OBJECT_ID      = 1998-067XY
CENTER_NAME    = EARTH
REF_FRAME      = TEME
TIME_SYSTEM    = UTC
MEAN_ELEMENT_THEORY = SGP/SGP4

EPOCH          = 2026-03-30T21:33:20.745792
MEAN_MOTION    = 15.68142094
ECCENTRICITY   = .00045608
INCLINATION    = 51.6262
RA_OF_ASC_NODE = 319.5186
ARG_OF_PERICENTER = 213.5649
MEAN_ANOMALY   = 146.5059

EPHEMERIS_TYPE = 0
CLASSIFICATION_TYPE = U
NORAD_CAT_ID   = 66912
ELEMENT_SET_NO = 999
REV_AT_EPOCH   = 1847
BSTAR          = .1154978E-2
MEAN_MOTION_DOT = .132984E-2
MEAN_MOTION_DDOT = 0

CCSDS_OMM_VERS = 2.0
CREATION_DATE  = 
ORIGINATOR     = 

OBJECT_NAME    = KNACKSAT-2
OBJECT_ID      = 1998-067XZ
CENTER_NAME    = EARTH
REF_FRAME      = TEME
TIME_SYSTEM    = UTC
MEAN_ELEMENT_THEORY = SGP/SGP4

EPOCH          = 2026-03-30T21:39:25.678656
MEAN_MOTION    = 15.53622032
ECCENTRICITY   = .00101827
INCLINATION    = 51.6321
RA_OF_ASC_NODE = 326.3110
ARG_OF_PERICENTER = 263.1970
MEAN_ANOMALY   = 96.7862

EPHEMERIS_TYPE = 0
CLASSIFICATION_TYPE = U
NORAD_CAT_ID   = 67683
ELEMENT_SET_NO = 999
REV_AT_EPOCH   = 808
BSTAR          = .75034832E-3
MEAN_MOTION_DOT = .48681E-3
MEAN_MOTION_DDOT = 0

