HTV-X1                  
1 66174U 25241A   26089.90936219  .00001427  00000+0  56486-4 0  9998
2 66174  51.6389 330.8013 0007317 254.4770 105.5404 15.32483648 24192
SZ-21 MODULE            
1 66515U 25246C   26089.30993578  .00048483  00000+0  38893-3 0  9991
2 66515  41.4738  76.2734 0002020 214.1142 145.9571 15.70166693 21313
SHENZHOU-22             
1 66645U 25272A   26089.76155282  .00029270  00000+0  33197-3 0  9991
2 66645  41.4667  79.8424 0003716  71.4537 288.6706 15.61714186281159
SOYUZ-MS 28             
1 66664U 25275A   26089.93951280  .00011955  00000+0  22734-3 0  9992
2 66664  51.6341 327.3071 0006212 253.0090 107.0218 15.48666868559313
DUPLEX                  
1 66906U 98067XS  26089.83219262  .00035084  00000+0  46994-3 0  9999
2 66906  51.6301 323.5918 0003039 209.6897 150.3923 15.57641267 18424
ISS OBJECT XT           
1 66907U 98067XT  26089.86536338  .00279090  00000+0  16004-2 0  9994
2 66907  51.6234 317.0231 0006458 218.2638 141.7905 15.77411960 18514
ISS OBJECT XU           
1 66908U 98067XU  26089.86123628  .00276303  00000+0  15668-2 0  9998
2 66908  51.6239 316.9907 0006668 217.3413 142.7125 15.77669708 18512
SILVERSAT               
1 66909U 98067XV  26089.87116059  .00426319  00000+0  18198-2 0  9995
2 66909  51.6201 315.5427 0007635 224.6684 135.3705 15.83458255 18534
ISS OBJECT XW           
1 66910U 98067XW  26089.87446045  .00234755  00000+0  14528-2 0  9992
2 66910  51.6224 317.0765 0006690 214.4793 145.5774 15.75809976 18519
ISS OBJECT XX           
1 66911U 98067XX  26089.80385276  .00655021  18053-3  20364-2 0  9993
2 66911  51.6174 314.3043 0009732 229.4279 130.5881 15.90941869 18538
ISS OBJECT XY           
1 66912U 98067XY  26089.89815678  .00132984  00000+0  11550-2 0  9991
2 66912  51.6262 319.5186 0004560 213.5649 146.5059 15.68142094 18476
KNACKSAT-2              
1 67683U 98067XZ  26089.90238054  .00048681  00000+0  75035-3 0  9995
2 67683  51.6321 326.3110 0010182 263.1970  96.7862 15.53622032  8089
